[{"OBJECT_NAME":"AETHER-11","OBJECT_ID":"2026-004V","EPOCH":"2026-03-09T21:44:33.405216","MEAN_MOTION":14.88107739,"ECCENTRICITY":0.00061342,"INCLINATION":97.803,"RA_OF_ASC_NODE":69.143,"ARG_OF_PERICENTER":88.5801,"MEAN_ANOMALY":271.6118,"EPHEMERIS_TYPE":0,"CLASSIFICATION_TYPE":"U","NORAD_CAT_ID":67382,"ELEMENT_SET_NO":999,"REV_AT_EPOCH":852,"BSTAR":0.00016474653,"MEAN_MOTION_DOT":1.462e-5,"MEAN_MOTION_DDOT":0},{"OBJECT_NAME":"CZ-6A DEB","OBJECT_ID":"2024-140BZ","EPOCH":"2026-03-09T14:49:21.592992","MEAN_MOTION":14.79384468,"ECCENTRICITY":0.0146889,"INCLINATION":88.732,"RA_OF_ASC_NODE":260.453,"ARG_OF_PERICENTER":155.7611,"MEAN_ANOMALY":205.0618,"EPHEMERIS_TYPE":0,"CLASSIFICATION_TYPE":"U","NORAD_CAT_ID":60672,"ELEMENT_SET_NO":999,"REV_AT_EPOCH":8505,"BSTAR":0.0010732,"MEAN_MOTION_DOT":9.637e-5,"MEAN_MOTION_DDOT":0}]
